{"type": "FeatureCollection", "features": [{"type": "Feature", "properties": {"norad_id": 28890, "name": "BEIJING 1", "group": "dmc", "lat": 5.113270221366378, "lon": 120.93376821186939, "alt_km": 689.0590503463027, "timestamp": "2025-12-20T03:42:47.058691+00:00", "meta": {"OBJECT_NAME": "BEIJING 1", "OBJECT_ID": "2005-043A", "EPOCH": "2025-12-19T21:07:31.458144", "MEAN_MOTION": 14.63373757, "ECCENTRICITY": 0.0015645, "INCLINATION": 98.2654, "RA_OF_ASC_NODE": 121.404, "ARG_OF_PERICENTER": 120.0496, "MEAN_ANOMALY": 240.226, "EPHEMERIS_TYPE": 0, "CLASSIFICATION_TYPE": "U", "NORAD_CAT_ID": 28890, "ELEMENT_SET_NO": 999, "REV_AT_EPOCH": 7442, "BSTAR": 0.00013208, "MEAN_MOTION_DOT": 6.35e-06, "MEAN_MOTION_DDOT": 0}, "tle": {"line1": "1 28890U 05043A   25353.88022521  .00000635  00000+0  13208-3 0  9995", "line2": "2 28890  98.2654 121.4040 0015645 120.0496 240.2260 14.63373757 74427"}}, "geometry": {"type": "Point", "coordinates": [120.93376821186939, 5.113270221366378]}}, {"type": "Feature", "properties": {"norad_id": 33320, "name": "HUANJING 1A (HJ-1A)", "group": "dmc", "lat": -26.338030905818144, "lon": 158.32645117961698, "alt_km": 637.5299507470863, "timestamp": "2025-12-20T03:42:47.058714+00:00", "meta": {"OBJECT_NAME": "HUANJING 1A (HJ-1A)", "OBJECT_ID": "2008-041A", "EPOCH": "2025-12-19T21:55:42.135168", "MEAN_MOTION": 14.83413838, "ECCENTRICITY": 0.0019635, "INCLINATION": 97.6535, "RA_OF_ASC_NODE": 341.9125, "ARG_OF_PERICENTER": 11.5846, "MEAN_ANOMALY": 348.5816, "EPHEMERIS_TYPE": 0, "CLASSIFICATION_TYPE": "U", "NORAD_CAT_ID": 33320, "ELEMENT_SET_NO": 999, "REV_AT_EPOCH": 93182, "BSTAR": 9.78e-05, "MEAN_MOTION_DOT": 7.54e-06, "MEAN_MOTION_DDOT": 0}, "tle": {"line1": "1 33320U 08041A   25353.91368212  .00000754  00000+0  97800-4 0  9997", "line2": "2 33320  97.6535 341.9125 0019635  11.5846 348.5816 14.83413838931823"}}, "geometry": {"type": "Point", "coordinates": [158.32645117961698, -26.338030905818144]}}, {"type": "Feature", "properties": {"norad_id": 33321, "name": "HUANJING 1B (HJ-1B)", "group": "dmc", "lat": 51.58391037877113, "lon": -23.923122049320224, "alt_km": 589.017152291136, "timestamp": "2025-12-20T03:42:47.058729+00:00", "meta": {"OBJECT_NAME": "HUANJING 1B (HJ-1B)", "OBJECT_ID": "2008-041B", "EPOCH": "2025-12-19T21:00:06.607872", "MEAN_MOTION": 14.82839443, "ECCENTRICITY": 0.0037999, "INCLINATION": 97.6396, "RA_OF_ASC_NODE": 345.5538, "ARG_OF_PERICENTER": 53.249, "MEAN_ANOMALY": 307.2203, "EPHEMERIS_TYPE": 0, "CLASSIFICATION_TYPE": "U", "NORAD_CAT_ID": 33321, "ELEMENT_SET_NO": 999, "REV_AT_EPOCH": 93183, "BSTAR": 0.00015537, "MEAN_MOTION_DOT": 1.222e-05, "MEAN_MOTION_DDOT": 0}, "tle": {"line1": "1 33321U 08041B   25353.87507648  .00001222  00000+0  15537-3 0  9998", "line2": "2 33321  97.6396 345.5538 0037999  53.2490 307.2203 14.82839443931834"}}, "geometry": {"type": "Point", "coordinates": [-23.923122049320224, 51.58391037877113]}}, {"type": "Feature", "properties": {"norad_id": 33446, "name": "YAOGAN-4", "group": "dmc", "lat": -39.150977156366494, "lon": -69.31167127373405, "alt_km": 618.8195159999132, "timestamp": "2025-12-20T03:42:47.058742+00:00", "meta": {"OBJECT_NAME": "YAOGAN-4", "OBJECT_ID": "2008-061A", "EPOCH": "2025-12-19T10:04:29.303904", "MEAN_MOTION": 14.8270055, "ECCENTRICITY": 0.0013167, "INCLINATION": 97.919, "RA_OF_ASC_NODE": 283.4536, "ARG_OF_PERICENTER": 299.8838, "MEAN_ANOMALY": 60.1067, "EPHEMERIS_TYPE": 0, "CLASSIFICATION_TYPE": "U", "NORAD_CAT_ID": 33446, "ELEMENT_SET_NO": 999, "REV_AT_EPOCH": 91902, "BSTAR": 0.00012167, "MEAN_MOTION_DOT": 9.29e-06, "MEAN_MOTION_DDOT": 0}, "tle": {"line1": "1 33446U 08061A   25353.41978361  .00000929  00000+0  12167-3 0  9991", "line2": "2 33446  97.9190 283.4536 0013167 299.8838  60.1067 14.82700550919026"}}, "geometry": {"type": "Point", "coordinates": [-69.31167127373405, -39.150977156366494]}}, {"type": "Feature", "properties": {"norad_id": 35681, "name": "DEIMOS-1", "group": "dmc", "lat": -62.96637117889521, "lon": -40.99278772370742, "alt_km": 654.2980249091297, "timestamp": "2025-12-20T03:42:47.058753+00:00", "meta": {"OBJECT_NAME": "DEIMOS-1", "OBJECT_ID": "2009-041A", "EPOCH": "2025-12-19T20:05:52.230048", "MEAN_MOTION": 14.74964702, "ECCENTRICITY": 0.0002614, "INCLINATION": 97.7142, "RA_OF_ASC_NODE": 154.11, "ARG_OF_PERICENTER": 68.2929, "MEAN_ANOMALY": 291.8559, "EPHEMERIS_TYPE": 0, "CLASSIFICATION_TYPE": "U", "NORAD_CAT_ID": 35681, "ELEMENT_SET_NO": 999, "REV_AT_EPOCH": 88044, "BSTAR": 0.00014151, "MEAN_MOTION_DOT": 9.04e-06, "MEAN_MOTION_DDOT": 0}, "tle": {"line1": "1 35681U 09041A   25353.83741007  .00000904  00000+0  14151-3 0  9992", "line2": "2 35681  97.7142 154.1100 0002614  68.2929 291.8559 14.74964702880443"}}, "geometry": {"type": "Point", "coordinates": [-40.99278772370742, -62.96637117889521]}}, {"type": "Feature", "properties": {"norad_id": 35683, "name": "UK-DMC 2", "group": "dmc", "lat": -79.49415901411054, "lon": 176.9676904867134, "alt_km": 651.5301141636128, "timestamp": "2025-12-20T03:42:47.058764+00:00", "meta": {"OBJECT_NAME": "UK-DMC 2", "OBJECT_ID": "2009-041C", "EPOCH": "2025-12-19T19:57:06.643296", "MEAN_MOTION": 14.75637647, "ECCENTRICITY": 0.0001507, "INCLINATION": 97.856, "RA_OF_ASC_NODE": 128.5337, "ARG_OF_PERICENTER": 93.7734, "MEAN_ANOMALY": 266.3648, "EPHEMERIS_TYPE": 0, "CLASSIFICATION_TYPE": "U", "NORAD_CAT_ID": 35683, "ELEMENT_SET_NO": 999, "REV_AT_EPOCH": 88011, "BSTAR": 0.00016218, "MEAN_MOTION_DOT": 1.058e-05, "MEAN_MOTION_DDOT": 0}, "tle": {"line1": "1 35683U 09041C   25353.83132689  .00001058  00000+0  16218-3 0  9991", "line2": "2 35683  97.8560 128.5337 0001507  93.7734 266.3648 14.75637647880110"}}, "geometry": {"type": "Point", "coordinates": [176.9676904867134, -79.49415901411054]}}, {"type": "Feature", "properties": {"norad_id": 40715, "name": "DMC3-FM1", "group": "dmc", "lat": -47.01091669499076, "lon": 32.76510014978856, "alt_km": 617.6850682294044, "timestamp": "2025-12-20T03:42:47.058775+00:00", "meta": {"OBJECT_NAME": "DMC3-FM1", "OBJECT_ID": "2015-032A", "EPOCH": "2025-12-19T21:50:29.971968", "MEAN_MOTION": 14.85450127, "ECCENTRICITY": 0.0004255, "INCLINATION": 97.6691, "RA_OF_ASC_NODE": 220.8409, "ARG_OF_PERICENTER": 292.0696, "MEAN_ANOMALY": 68.0067, "EPHEMERIS_TYPE": 0, "CLASSIFICATION_TYPE": "U", "NORAD_CAT_ID": 40715, "ELEMENT_SET_NO": 999, "REV_AT_EPOCH": 56329, "BSTAR": 3.8115e-05, "MEAN_MOTION_DOT": 2.77e-06, "MEAN_MOTION_DDOT": 0}, "tle": {"line1": "1 40715U 15032A   25353.91006912  .00000277  00000+0  38115-4 0  9991", "line2": "2 40715  97.6691 220.8409 0004255 292.0696  68.0067 14.85450127563291"}}, "geometry": {"type": "Point", "coordinates": [32.76510014978856, -47.01091669499076]}}, {"type": "Feature", "properties": {"norad_id": 40716, "name": "DMC3-FM2", "group": "dmc", "lat": 71.0388378930941, "lon": 65.63571661529856, "alt_km": 608.5989798095643, "timestamp": "2025-12-20T03:42:47.058785+00:00", "meta": {"OBJECT_NAME": "DMC3-FM2", "OBJECT_ID": "2015-032B", "EPOCH": "2025-12-19T20:45:52.873920", "MEAN_MOTION": 14.85453639, "ECCENTRICITY": 0.0004785, "INCLINATION": 97.6749, "RA_OF_ASC_NODE": 222.2466, "ARG_OF_PERICENTER": 298.6268, "MEAN_ANOMALY": 61.4466, "EPHEMERIS_TYPE": 0, "CLASSIFICATION_TYPE": "U", "NORAD_CAT_ID": 40716, "ELEMENT_SET_NO": 999, "REV_AT_EPOCH": 56328, "BSTAR": 0.00010022, "MEAN_MOTION_DOT": 8.13e-06, "MEAN_MOTION_DDOT": 0}, "tle": {"line1": "1 40716U 15032B   25353.86519530  .00000813  00000+0  10022-3 0  9993", "line2": "2 40716  97.6749 222.2466 0004785 298.6268  61.4466 14.85453639563280"}}, "geometry": {"type": "Point", "coordinates": [65.63571661529856, 71.0388378930941]}}, {"type": "Feature", "properties": {"norad_id": 40717, "name": "DMC3-FM3", "group": "dmc", "lat": -8.540746208860021, "lon": -134.67474670849273, "alt_km": 614.4944653252905, "timestamp": "2025-12-20T03:42:47.058795+00:00", "meta": {"OBJECT_NAME": "DMC3-FM3", "OBJECT_ID": "2015-032C", "EPOCH": "2025-12-19T21:17:06.205632", "MEAN_MOTION": 14.85442157, "ECCENTRICITY": 0.0004085, "INCLINATION": 97.6806, "RA_OF_ASC_NODE": 223.9056, "ARG_OF_PERICENTER": 300.9056, "MEAN_ANOMALY": 59.1757, "EPHEMERIS_TYPE": 0, "CLASSIFICATION_TYPE": "U", "NORAD_CAT_ID": 40717, "ELEMENT_SET_NO": 999, "REV_AT_EPOCH": 56329, "BSTAR": 0.00010707, "MEAN_MOTION_DOT": 8.71e-06, "MEAN_MOTION_DDOT": 0}, "tle": {"line1": "1 40717U 15032C   25353.88687738  .00000871  00000+0  10707-3 0  9996", "line2": "2 40717  97.6806 223.9056 0004085 300.9056  59.1757 14.85442157563294"}}, "geometry": {"type": "Point", "coordinates": [-134.67474670849273, -8.540746208860021]}}]}